[{"OBJECT_NAME":"SJ-11-01","OBJECT_ID":"2009-061A","EPOCH":"2026-03-09T22:23:06.372960","MEAN_MOTION":14.6357145,"ECCENTRICITY":0.0010599,"INCLINATION":97.9987,"RA_OF_ASC_NODE":52.7837,"ARG_OF_PERICENTER":343.574,"MEAN_ANOMALY":101.0983,"EPHEMERIS_TYPE":0,"CLASSIFICATION_TYPE":"U","NORAD_CAT_ID":36088,"ELEMENT_SET_NO":999,"REV_AT_EPOCH":86997,"BSTAR":0.00019291799,"MEAN_MOTION_DOT":9.56e-6,"MEAN_MOTION_DDOT":0},{"OBJECT_NAME":"PACE","OBJECT_ID":"2024-025A","EPOCH":"2026-03-09T17:12:21.766176","MEAN_MOTION":14.65475036,"ECCENTRICITY":0.00016743,"INCLINATION":98.09,"RA_OF_ASC_NODE":1.5412,"ARG_OF_PERICENTER":171.2406,"MEAN_ANOMALY":188.8827,"EPHEMERIS_TYPE":0,"CLASSIFICATION_TYPE":"U","NORAD_CAT_ID":58928,"ELEMENT_SET_NO":999,"REV_AT_EPOCH":11136,"BSTAR":0.00014666329,"MEAN_MOTION_DOT":7.47e-6,"MEAN_MOTION_DDOT":0}]
